[{"OBJECT_NAME":"STARLINK-6301","OBJECT_ID":"2023-061U","EPOCH":"2026-03-09T22:00:01.999584","MEAN_MOTION":15.05910777,"ECCENTRICITY":0.00022995,"INCLINATION":43.0006,"RA_OF_ASC_NODE":183.7483,"ARG_OF_PERICENTER":264.0078,"MEAN_ANOMALY":68.1316,"EPHEMERIS_TYPE":0,"CLASSIFICATION_TYPE":"U","NORAD_CAT_ID":56392,"ELEMENT_SET_NO":999,"REV_AT_EPOCH":577,"BSTAR":0.0016398394,"MEAN_MOTION_DOT":0.00024118,"MEAN_MOTION_DDOT":0},{"OBJECT_NAME":"COSMOS 2251 DEB","OBJECT_ID":"1993-036GR","EPOCH":"2026-03-09T03:51:30.155616","MEAN_MOTION":15.03624382,"ECCENTRICITY":0.001162,"INCLINATION":74.0519,"RA_OF_ASC_NODE":328.1155,"ARG_OF_PERICENTER":228.8449,"MEAN_ANOMALY":281.5146,"EPHEMERIS_TYPE":0,"CLASSIFICATION_TYPE":"U","NORAD_CAT_ID":34006,"ELEMENT_SET_NO":999,"REV_AT_EPOCH":89963,"BSTAR":0.0037151817,"MEAN_MOTION_DOT":0.00051242,"MEAN_MOTION_DDOT":0}]
